{"fetched_at":"2026-07-14T06:34:23.487Z","source":"https://celestrak.org/NORAD/elements/gp.php?GROUP=planet&FORMAT=JSON","constellation":"superdove","records":[{"OBJECT_NAME":"FLOCK 4BE-3","OBJECT_ID":"2024-149CX","EPOCH":"2026-07-13T19:38:14.123328","CLASSIFICATION_TYPE":"U","MEAN_MOTION":15.42364187,"ECCENTRICITY":0.00049,"INCLINATION":97.3698,"RA_OF_ASC_NODE":278.9985,"ARG_OF_PERICENTER":171.7361,"MEAN_ANOMALY":188.3968,"EPHEMERIS_TYPE":0,"NORAD_CAT_ID":60561,"ELEMENT_SET_NO":999,"REV_AT_EPOCH":10644,"BSTAR":0.00024077,"MEAN_MOTION_DOT":0.00010306,"MEAN_MOTION_DDOT":0},{"OBJECT_NAME":"FLOCK 4BE-19","OBJECT_ID":"2024-149CZ","EPOCH":"2026-07-13T17:54:01.744128","CLASSIFICATION_TYPE":"U","MEAN_MOTION":15.45599595,"ECCENTRICITY":0.0005734,"INCLINATION":97.3737,"RA_OF_ASC_NODE":280.6016,"ARG_OF_PERICENTER":178.1654,"MEAN_ANOMALY":181.9617,"EPHEMERIS_TYPE":0,"NORAD_CAT_ID":60563,"ELEMENT_SET_NO":999,"REV_AT_EPOCH":10652,"BSTAR":0.00031646,"MEAN_MOTION_DOT":0.00015155,"MEAN_MOTION_DDOT":0},{"OBJECT_NAME":"FLOCK 4G-8","OBJECT_ID":"2025-009E","EPOCH":"2026-07-13T18:27:36.826272","CLASSIFICATION_TYPE":"U","MEAN_MOTION":15.30225465,"ECCENTRICITY":0.0003855,"INCLINATION":97.401,"RA_OF_ASC_NODE":276.6695,"ARG_OF_PERICENTER":196.9595,"MEAN_ANOMALY":163.1518,"EPHEMERIS_TYPE":0,"NORAD_CAT_ID":62613,"ELEMENT_SET_NO":999,"REV_AT_EPOCH":8298,"BSTAR":0.000215,"MEAN_MOTION_DOT":0.00006211,"MEAN_MOTION_DDOT":0},{"OBJECT_NAME":"FLOCK 4G-13","OBJECT_ID":"2025-009N","EPOCH":"2026-07-13T17:47:41.104608","CLASSIFICATION_TYPE":"U","MEAN_MOTION":15.48732256,"ECCENTRICITY":0.0006295,"INCLINATION":97.3952,"RA_OF_ASC_NODE":278.5597,"ARG_OF_PERICENTER":201.3338,"MEAN_ANOMALY":158.7651,"EPHEMERIS_TYPE":0,"NORAD_CAT_ID":62621,"ELEMENT_SET_NO":999,"REV_AT_EPOCH":8310,"BSTAR":0.00093909,"MEAN_MOTION_DOT":0.00050534,"MEAN_MOTION_DDOT":0},{"OBJECT_NAME":"FLOCK 4G-9","OBJECT_ID":"2025-009P","EPOCH":"2026-07-13T18:58:00.433056","CLASSIFICATION_TYPE":"U","MEAN_MOTION":15.28493537,"ECCENTRICITY":0.000388,"INCLINATION":97.3963,"RA_OF_ASC_NODE":275.5497,"ARG_OF_PERICENTER":210.7697,"MEAN_ANOMALY":149.3316,"EPHEMERIS_TYPE":0,"NORAD_CAT_ID":62622,"ELEMENT_SET_NO":999,"REV_AT_EPOCH":8292,"BSTAR":0.00019085,"MEAN_MOTION_DOT":0.00005217,"MEAN_MOTION_DDOT":0},{"OBJECT_NAME":"FLOCK 4G-7","OBJECT_ID":"2025-009R","EPOCH":"2026-07-13T03:56:32.231616","CLASSIFICATION_TYPE":"U","MEAN_MOTION":15.29822016,"ECCENTRICITY":0.00023378,"INCLINATION":97.3946,"RA_OF_ASC_NODE":275.3415,"ARG_OF_PERICENTER":194.8923,"MEAN_ANOMALY":165.2249,"EPHEMERIS_TYPE":0,"NORAD_CAT_ID":62624,"ELEMENT_SET_NO":999,"REV_AT_EPOCH":8287,"BSTAR":0.00031524039,"MEAN_MOTION_DOT":0.00009031,"MEAN_MOTION_DDOT":0},{"OBJECT_NAME":"FLOCK 4G-12","OBJECT_ID":"2025-009S","EPOCH":"2026-07-13T17:57:15.878016","CLASSIFICATION_TYPE":"U","MEAN_MOTION":15.29753655,"ECCENTRICITY":0.0004015,"INCLINATION":97.4025,"RA_OF_ASC_NODE":276.47,"ARG_OF_PERICENTER":193.2245,"MEAN_ANOMALY":166.8891,"EPHEMERIS_TYPE":0,"NORAD_CAT_ID":62625,"ELEMENT_SET_NO":999,"REV_AT_EPOCH":8296,"BSTAR":0.00021686,"MEAN_MOTION_DOT":0.00006175,"MEAN_MOTION_DDOT":0},{"OBJECT_NAME":"FLOCK 4G-11","OBJECT_ID":"2025-009W","EPOCH":"2026-07-13T16:01:25.728096","CLASSIFICATION_TYPE":"U","MEAN_MOTION":15.2986208,"ECCENTRICITY":0.0002447,"INCLINATION":97.3928,"RA_OF_ASC_NODE":275.9501,"ARG_OF_PERICENTER":189.6665,"MEAN_ANOMALY":170.4529,"EPHEMERIS_TYPE":0,"NORAD_CAT_ID":62629,"ELEMENT_SET_NO":999,"REV_AT_EPOCH":8296,"BSTAR":0.00022424,"MEAN_MOTION_DOT":0.00006408,"MEAN_MOTION_DDOT":0},{"OBJECT_NAME":"FLOCK 4G-26","OBJECT_ID":"2025-009AA","EPOCH":"2026-07-13T16:21:14.969664","CLASSIFICATION_TYPE":"U","MEAN_MOTION":15.30048986,"ECCENTRICITY":0.0003489,"INCLINATION":97.4022,"RA_OF_ASC_NODE":276.5641,"ARG_OF_PERICENTER":182.5069,"MEAN_ANOMALY":177.6155,"EPHEMERIS_TYPE":0,"NORAD_CAT_ID":62633,"ELEMENT_SET_NO":999,"REV_AT_EPOCH":8296,"BSTAR":0.00023197,"MEAN_MOTION_DOT":0.00006671,"MEAN_MOTION_DDOT":0},{"OBJECT_NAME":"FLOCK 4G-28","OBJECT_ID":"2025-009AB","EPOCH":"2026-07-13T18:46:56.200224","CLASSIFICATION_TYPE":"U","MEAN_MOTION":15.35265801,"ECCENTRICITY":0.0001981,"INCLINATION":97.4031,"RA_OF_ASC_NODE":279.4387,"ARG_OF_PERICENTER":165.1822,"MEAN_ANOMALY":194.948,"EPHEMERIS_TYPE":0,"NORAD_CAT_ID":62634,"ELEMENT_SET_NO":999,"REV_AT_EPOCH":8316,"BSTAR":0.00016198,"MEAN_MOTION_DOT":0.00005465,"MEAN_MOTION_DDOT":0},{"OBJECT_NAME":"FLOCK 4G-24","OBJECT_ID":"2025-009AE","EPOCH":"2026-07-13T18:12:03.178368","CLASSIFICATION_TYPE":"U","MEAN_MOTION":15.30348455,"ECCENTRICITY":0.0003581,"INCLINATION":97.403,"RA_OF_ASC_NODE":276.9452,"ARG_OF_PERICENTER":169.454,"MEAN_ANOMALY":190.6777,"EPHEMERIS_TYPE":0,"NORAD_CAT_ID":62637,"ELEMENT_SET_NO":999,"REV_AT_EPOCH":8299,"BSTAR":0.00020137,"MEAN_MOTION_DOT":0.00005835,"MEAN_MOTION_DDOT":0},{"OBJECT_NAME":"FLOCK 4G-3","OBJECT_ID":"2025-009AG","EPOCH":"2026-07-13T18:01:34.319424","CLASSIFICATION_TYPE":"U","MEAN_MOTION":15.29853956,"ECCENTRICITY":0.0003082,"INCLINATION":97.4028,"RA_OF_ASC_NODE":276.6467,"ARG_OF_PERICENTER":173.7421,"MEAN_ANOMALY":186.3858,"EPHEMERIS_TYPE":0,"NORAD_CAT_ID":62639,"ELEMENT_SET_NO":999,"REV_AT_EPOCH":8296,"BSTAR":0.00021027,"MEAN_MOTION_DOT":0.00006003,"MEAN_MOTION_DDOT":0},{"OBJECT_NAME":"FLOCK 4G-27","OBJECT_ID":"2025-009AJ","EPOCH":"2026-07-13T18:29:40.463808","CLASSIFICATION_TYPE":"U","MEAN_MOTION":15.29790199,"ECCENTRICITY":0.0002425,"INCLINATION":97.394,"RA_OF_ASC_NODE":276.0161,"ARG_OF_PERICENTER":172.1189,"MEAN_ANOMALY":188.009,"EPHEMERIS_TYPE":0,"NORAD_CAT_ID":62641,"ELEMENT_SET_NO":999,"REV_AT_EPOCH":8296,"BSTAR":0.00021814,"MEAN_MOTION_DOT":0.00006218,"MEAN_MOTION_DDOT":0},{"OBJECT_NAME":"FLOCK 4G-29","OBJECT_ID":"2025-009AK","EPOCH":"2026-07-13T18:08:38.736960","CLASSIFICATION_TYPE":"U","MEAN_MOTION":15.29845221,"ECCENTRICITY":0.0003277,"INCLINATION":97.4025,"RA_OF_ASC_NODE":276.6118,"ARG_OF_PERICENTER":170.6927,"MEAN_ANOMALY":189.4374,"EPHEMERIS_TYPE":0,"NORAD_CAT_ID":62642,"ELEMENT_SET_NO":999,"REV_AT_EPOCH":8296,"BSTAR":0.00018237,"MEAN_MOTION_DOT":0.00005194,"MEAN_MOTION_DDOT":0},{"OBJECT_NAME":"FLOCK 4G-22","OBJECT_ID":"2025-009AN","EPOCH":"2026-07-13T18:35:06.367200","CLASSIFICATION_TYPE":"U","MEAN_MOTION":15.29754129,"ECCENTRICITY":0.0002815,"INCLINATION":97.4012,"RA_OF_ASC_NODE":276.6646,"ARG_OF_PERICENTER":165.5346,"MEAN_ANOMALY":194.5976,"EPHEMERIS_TYPE":0,"NORAD_CAT_ID":62645,"ELEMENT_SET_NO":999,"REV_AT_EPOCH":8298,"BSTAR":0.00022793,"MEAN_MOTION_DOT":0.00006493,"MEAN_MOTION_DDOT":0},{"OBJECT_NAME":"FLOCK 4G-25","OBJECT_ID":"2025-009AP","EPOCH":"2026-07-13T17:57:36.842112","CLASSIFICATION_TYPE":"U","MEAN_MOTION":15.29991948,"ECCENTRICITY":0.0002294,"INCLINATION":97.4021,"RA_OF_ASC_NODE":276.7164,"ARG_OF_PERICENTER":165.665,"MEAN_ANOMALY":194.4656,"EPHEMERIS_TYPE":0,"NORAD_CAT_ID":62646,"ELEMENT_SET_NO":999,"REV_AT_EPOCH":8298,"BSTAR":0.00022532,"MEAN_MOTION_DOT":0.00006465,"MEAN_MOTION_DDOT":0}]}
