FLOCK 4BE-3             
1 60561U 24149CX  26194.81821902  .00010306  00000+0  24077-3 0  9993
2 60561  97.3698 278.9985 0004900 171.7361 188.3968 15.42364187106448
FLOCK 4BE-19            
1 60563U 24149CZ  26194.74585352  .00015155  00000+0  31646-3 0  9990
2 60563  97.3737 280.6016 0005734 178.1654 181.9617 15.45599595106526
FLOCK 4G-8              
1 62613U 25009E   26194.76917623  .00006211  00000+0  21500-3 0  9997
2 62613  97.4010 276.6695 0003855 196.9595 163.1518 15.30225465 82982
FLOCK 4G-13             
1 62621U 25009N   26194.74144797  .00050534  00000+0  93909-3 0  9997
2 62621  97.3952 278.5597 0006295 201.3338 158.7651 15.48732256 83107
FLOCK 4G-9              
1 62622U 25009P   26194.79028279  .00005217  00000+0  19085-3 0  9990
2 62622  97.3963 275.5497 0003880 210.7697 149.3316 15.28493537 82922
FLOCK 4G-7              
1 62624U 25009R   26194.16426194  .00009031  00000+0  31524-3 0  9991
2 62624  97.3946 275.3415 0002337 194.8923 165.2249 15.29822016 82878
FLOCK 4G-12             
1 62625U 25009S   26194.74810044  .00006175  00000+0  21686-3 0  9991
2 62625  97.4025 276.4700 0004015 193.2245 166.8891 15.29753655 82964
FLOCK 4G-11             
1 62629U 25009W   26194.66765889  .00006408  00000+0  22424-3 0  9992
2 62629  97.3928 275.9501 0002447 189.6665 170.4529 15.29862080 82966
FLOCK 4G-26             
1 62633U 25009AA  26194.68142326  .00006671  00000+0  23197-3 0  9994
2 62633  97.4022 276.5641 0003489 182.5069 177.6155 15.30048986 82963
FLOCK 4G-28             
1 62634U 25009AB  26194.78259491  .00005465  00000+0  16198-3 0  9991
2 62634  97.4031 279.4387 0001981 165.1822 194.9480 15.35265801 83160
FLOCK 4G-24             
1 62637U 25009AE  26194.75837012  .00005835  00000+0  20137-3 0  9991
2 62637  97.4030 276.9452 0003581 169.4540 190.6777 15.30348455 82993
FLOCK 4G-3              
1 62639U 25009AG  26194.75109166  .00006003  00000+0  21027-3 0  9992
2 62639  97.4028 276.6467 0003082 173.7421 186.3858 15.29853956 82961
FLOCK 4G-27             
1 62641U 25009AJ  26194.77060722  .00006218  00000+0  21814-3 0  9993
2 62641  97.3940 276.0161 0002425 172.1189 188.0090 15.29790199 82961
FLOCK 4G-29             
1 62642U 25009AK  26194.75600390  .00005194  00000+0  18237-3 0  9990
2 62642  97.4025 276.6118 0003277 170.6927 189.4374 15.29845221 82961
FLOCK 4G-22             
1 62645U 25009AN  26194.77437925  .00006493  00000+0  22793-3 0  9992
2 62645  97.4012 276.6646 0002815 165.5346 194.5976 15.29754129 82984
FLOCK 4G-25             
1 62646U 25009AP  26194.74834308  .00006465  00000+0  22532-3 0  9996
2 62646  97.4021 276.7164 0002294 165.6650 194.4656 15.29991948 82987
